IRIDIUM 81 [P]          
1 25468U 98051B   18166.48095444  .00000869  00000-0  60802-4 0  9991
2 25468  86.4180 229.9181 0181236 356.7783   3.2259 14.91299503 35086
IRIDIUM 80 [+]          
1 25469U 98051C   18166.46916646  .00000147  00000-0  45537-4 0  9993
2 25469  86.3984 230.2081 0002609 106.5455 342.3745 14.34220317 34906
IRIDIUM 2 [-]           
1 25527U 98066A   18166.51486632  .00000792  00000-0  37699-4 0  9993
2 25527  85.5298 177.6438 0008655 178.5763 181.5504 15.17421233 72953
IRIDIUM 86 [+]          
1 25528U 98066B   18166.46758567 -.00000028  00000-0 -17071-4 0  9993
2 25528  86.3973 197.9093 0001652 107.8808 252.2568 14.34220682 31437
IRIDIUM 84 [+]          
1 25530U 98066D   18166.15044484 -.00000020  00000-0 -14213-4 0  9995
2 25530  86.3975 198.2125 0002280  86.6274 273.5182 14.34221739 29025
IRIDIUM 83 [+]          
1 25531U 98066E   18166.46123512 -.00000016  00000-0 -12644-4 0  9991
2 25531  86.3978 198.2231 0002315  87.1880 272.9581 14.34221343 26423
IRIDIUM 20 [B]          
1 25577U 98074A   18166.37613273  .00000148  00000-0  42023-4 0  9996
2 25577  86.4225 103.6131 0002297  65.3567 294.7870 14.38603563 20516
IRIDIUM 11 [B]          
1 25578U 98074B   18166.40196198  .00000134  00000-0  37293-4 0  9991
2 25578  86.4228 103.8213 0002680  64.1022  37.1040 14.38604780 29487
IRIDIUM 14 [+]          
1 25777U 99032A   18166.29533486  .00000178  00000-0  56335-4 0  9995
2 25777  86.3974  72.2087 0002054  83.9434 276.1996 14.34221328  6731
IRIDIUM 91 [+]          
1 27372U 02005A   18166.44173030  .00000054  00000-0  12202-4 0  9992
2 27372  86.3962 135.3907 0001940  79.7353 280.4061 14.34213838863693
IRIDIUM 90 [-]          
1 27373U 02005B   18166.50390802  .00078318  23971-6  39629-3 0  9995
2 27373  86.4312 191.8225 0285772 345.4069  13.9051 15.41113955864606
IRIDIUM 95 [+]          
1 27375U 02005D   18166.40999108  .00000017  00000-0 -10999-5 0  9995
2 27375  86.3960 135.4119 0002352  62.6162 297.5273 14.34216473862979
IRIDIUM 96 [-]          
1 27376U 02005E   18166.44683275  .00012988 -97955-6  13367-3 0  9996
2 27376  86.3779 156.0460 0286516 221.0531 136.8842 15.27261363869710
IRIDIUM 97 [B]          
1 27450U 02031A   18166.48977641  .00000008  00000-0 -37589-5 0  9998
2 27450  86.4232 167.0989 0002463  86.2669 273.8811 14.38600275842344
IRIDIUM 98 [+]          
1 27451U 02031B   18166.31876682  .00000131  00000-0  39868-4 0  9991
2 27451  86.3978 230.3420 0002088 103.1270 257.0159 14.34220407843357
